<!doctype html>

<html>

<head>

<title>TLE for NORAD Catalog Number 44265</title>

</head>

<body>

<pre>
STARLINK-63             
1 44265U 19029AG  19302.07852174  .00002243  00000-0  17350-3 0  9991
2 44265  52.9996 182.5709 0001858  77.2487 282.8708 15.05480505 23971

</pre>
	
</body>

</html>
